GLOBALSTAR M023         
1 25621U 99004A   26027.32902640 -.00000044  00000+0  33133-3 0  9995
2 25621  52.0107  90.9178 0009335 260.6572 176.3367 12.62515729244042
GLOBALSTAR M040         
1 25622U 99004B   26026.70025824 -.00000029  00000+0  42034-3 0  9990
2 25622  51.9918  97.3153 0001513 146.4348  30.8153 12.62027923243474
GLOBALSTAR M036         
1 25623U 99004C   26027.28892292 -.00000035  00000+0  69243-3 0  9994
2 25623  51.9996   9.6248 0010752 119.4161 349.7566 11.86617766205585
GLOBALSTAR M038         
1 25624U 99004D   26026.69346624 -.00000050  00000+0  36764-3 0  9991
2 25624  51.9965 147.8912 0002586 143.0272 355.5679 12.32539955229937
GLOBALSTAR M022         
1 25649U 99012A   26027.32593507 -.00000051  00000+0  43292-3 0  9997
2 25649  52.0051  41.5836 0002514 249.6730 123.4470 12.02509119203344
GLOBALSTAR M041         
1 25650U 99012B   26026.73534303 -.00000068  00000+0  22299-3 0  9994
2 25650  52.0028 291.4602 0002056  53.3667 306.7359 11.96683283205045
GLOBALSTAR M046         
1 25651U 99012C   26027.07392373 -.00000146  00000+0 -62704-3 0  9995
2 25651  52.0081 344.2321 0002100 350.3755  92.0307 12.09417893210757
GLOBALSTAR M037         
1 25652U 99012D   26027.01989340 -.00000052  00000+0  28661-3 0  9995
2 25652  51.9977 222.3942 0001658 357.3181 166.8097 12.62460398239543
